{
  "norad_id": 51725,
  "name": "STARLINK-3522",
  "history": [
    {
      "epoch": "2026-03-28T17:28:49.296576Z",
      "apogee_km": 540.6750239608282,
      "perigee_km": 538.8514654563232,
      "latitude_deg": 7.800421534049389e-06,
      "longitude_deg": 155.30167465786857,
      "height_km": 540.7139103394372,
      "semi_major_axis_km": 6917.900244708576,
      "eccentricity": 0.0001318,
      "inclination_deg": 53.2176,
      "raan_deg": 243.6517,
      "arg_perigee_deg": 93.4508,
      "mean_anomaly_deg": 266.6635,
      "mean_motion_rev_day": 15.08833504
    },
    {
      "epoch": "2026-03-30T02:51:55.253664Z",
      "apogee_km": 540.685966052667,
      "perigee_km": 538.8139858369768,
      "latitude_deg": -9.047868349293375e-06,
      "longitude_deg": 6.9112687298119395,
      "height_km": 540.6183954558813,
      "semi_major_axis_km": 6917.886975944822,
      "eccentricity": 0.0001353,
      "inclination_deg": 53.2184,
      "raan_deg": 237.4072,
      "arg_perigee_deg": 88.3222,
      "mean_anomaly_deg": 271.7925,
      "mean_motion_rev_day": 15.08837845
    },
    {
      "epoch": "2026-03-30T02:51:55.254528Z",
      "apogee_km": 540.6857585160569,
      "perigee_km": 538.814193373586,
      "latitude_deg": -6.278972688909487e-06,
      "longitude_deg": 6.91126717861537,
      "height_km": 540.6184015321759,
      "semi_major_axis_km": 6917.886975944822,
      "eccentricity": 0.00013527,
      "inclination_deg": 53.2184,
      "raan_deg": 237.4072,
      "arg_perigee_deg": 88.3222,
      "mean_anomaly_deg": 271.7925,
      "mean_motion_rev_day": 15.08837845
    }
  ]
}